0 COSMOS 252 DEB
1 03558U 68097L   13282.15515455  .00009446  00000-0  11330-2 0  9395
2 03558 062.1940 340.6033 0332472 037.0084 052.1621 14.52267492254704
0 COSMOS 252 DEB
1 03558U 68097L   13283.17780266  .00008733  00000-0  10487-2 0  9404
2 03558 062.1941 337.3252 0332504 037.2899 358.7883 14.52287244254851
0 COSMOS 252 DEB
1 03558U 68097L   13284.50051875  .00009795  00000-0  11721-2 0  9411
2 03558 062.1943 333.0849 0332612 037.6629 074.3170 14.52300143255049
0 COSMOS 252 DEB
1 03558U 68097L   13285.53405976  .00007702  00000-0  92656-3 0  9424
2 03558 062.1943 329.7717 0332666 037.9552 078.0076 14.52314548255198
0 COSMOS 252 DEB
1 03558U 68097L   13286.62913404  .00007667  00000-0  92180-3 0  9438
2 03558 062.1940 326.2613 0332737 038.2630 043.4745 14.52327913255359
0 COSMOS 252 DEB
1 03558U 68097L   13288.14728936  .00014409  00000-0  17080-2 0  9449
2 03558 062.1935 321.3944 0332753 038.6937 061.0661 14.52357763255571
0 COSMOS 252 DEB
1 03558U 68097L   13289.53389464  .00012791  00000-0  15177-2 0  9450
2 03558 062.1930 316.9487 0332814 039.0847 111.0227 14.52385315255771
0 COSMOS 252 DEB
1 03558U 68097L   13290.60723486  .00009892  00000-0  11567-2 0  9464
2 03558 062.1938 313.5093 0332229 039.4692 323.0578 14.52408572255930
0 COSMOS 252 DEB
1 03558U 68097L   13290.62377553  .00012957  00000-0  15360-2 0  9467
2 03558 062.1926 313.4538 0332835 039.3933 049.6219 14.52405602255934
0 COSMOS 252 DEB
1 03558U 68097L   13292.14289084  .00010818  00000-0  12855-2 0  9478
2 03558 062.1925 308.5823 0332872 039.8230 072.6807 14.52436064256151
0 COSMOS 252 DEB
1 03558U 68097L   13293.51356833  .00012536  00000-0  14838-2 0  9480
2 03558 062.1926 304.1867 0332952 040.2106 039.7351 14.52461978256351
0 COSMOS 252 DEB
1 03558U 68097L   13294.81618856  .00015519  00000-0  18288-2 0  9498
2 03558 062.1928 300.0094 0332991 040.5804 011.0551 14.52488962256549
0 COSMOS 252 DEB
1 03558U 68097L   13296.13634742  .00014943  00000-0  17602-2 0  9508
2 03558 062.1930 295.7758 0333011 040.9546 074.2148 14.52520785256734
